NORAD_CAT_ID,OBJECT_NAME,OBJECT_TYPE,EPOCH,MEAN_MOTION,ECCENTRICITY,INCLINATION,RA_OF_ASC_NODE,ARG_OF_PERICENTER,MEAN_ANOMALY,BSTAR,MEAN_MOTION_DOT,MEAN_MOTION_DDOT,TLE_LINE0,TLE_LINE1,TLE_LINE2,SEMIMAJOR_AXIS,PERIOD,APOGEE,PERIGEE,DECAYED
52997.0,STARLINK-4301,PAYLOAD,2022-11-05 08:11:17,15.08841162,0.0002333,53.2157,172.4737,40.9878,319.129,1.0684e-05,-1.18e-06,0.0,0 STARLINK-4301,1 52997U 22076M   22309.34117279 -.00000118  00000-0  10684-4 0  9993,2 52997  53.2157 172.4737 0002333  40.9878 319.1290 15.08841162 18612,6917.877,95.437,541.356,538.128,0.0
52997.0,STARLINK-4301,PAYLOAD,2022-11-05 17:43:37,15.08820642,0.0001641999999999,53.216,170.6867,36.3541,323.7562,-0.00028405,-4.803e-05,0.0,0 STARLINK-4301,1 52997U 22076M   22309.73863394 -.00004803  00000-0 -28405-3 0  9997,2 52997  53.2160 170.6867 0001642  36.3541 323.7562 15.08820642 19140,6917.94,95.439,540.94,538.669,0.0
52997.0,STARLINK-4301,PAYLOAD,2022-11-06 08:02:05,15.0882565,0.0001751,53.2167,168.0123,38.4022,321.7095,-5.4542e-05,-1.156e-05,0.0,0 STARLINK-4301,1 52997U 22076M   22310.33479067 -.00001156  00000-0 -54542-4 0  9995,2 52997  53.2167 168.0123 0001751  38.4022 321.7095 15.08825650 19234,6917.924,95.438,541.001,538.578,0.0
52997.0,STARLINK-4301,PAYLOAD,2022-11-06 20:45:10,15.08835674,0.0001996,53.2163,165.6339,35.2367,324.8757,2.4835e-05,1.07e-06,0.0,0 STARLINK-4301,1 52997U 22076M   22310.86470654  .00000107  00000-0  24835-4 0  9991,2 52997  53.2163 165.6339 0001996  35.2367 324.8757 15.08835674 19315,6917.894,95.438,541.139,538.378,0.0
52997.0,STARLINK-4301,PAYLOAD,2022-11-07 20:35:57,15.08839804,0.0001984,53.2159,161.1721,36.2067,323.9059,0.00041792,6.369e-05,0.0,0 STARLINK-4301,1 52997U 22076M   22311.85830246  .00006369  00000-0  41792-3 0  9994,2 52997  53.2159 161.1721 0001984  36.2067 323.9059 15.08839804 18998,6917.880999999999,95.438,541.118,538.373,0.0
52997.0,STARLINK-4301,PAYLOAD,2022-11-08 01:22:07,15.08850174,0.0002065,53.2144,160.2796,37.9459,322.1678,0.00060366,9.335e-05,0.0,0 STARLINK-4301,1 52997U 22076M   22312.05702694  .00009335  00000-0  60366-3 0  9996,2 52997  53.2144 160.2796 0002065  37.9459 322.1678 15.08850174 19495,6917.849,95.437,541.143,538.286,0.0
52997.0,STARLINK-4301,PAYLOAD,2022-11-09 01:12:52,15.08861015,0.0002257,53.2136,155.8198,38.0622,322.0529,0.0002083,3.03e-05,0.0,0 STARLINK-4301,1 52997U 22076M   22313.05061239  .00003030  00000-0  20830-3 0  9998,2 52997  53.2136 155.8198 0002257  38.0622 322.0529 15.08861015 19174,6917.816,95.436,541.243,538.12,0.0
52997.0,STARLINK-4301,PAYLOAD,2022-11-09 20:17:29,15.08896985,0.000196,53.2146,152.251,30.6979,329.4128,-0.0007229,-0.00011793,0.0,0 STARLINK-4301,1 52997U 22076M   22313.84548317 -.00011793  00000-0 -72290-3 0  9996,2 52997  53.2146 152.2510 0001960  30.6979 329.4128 15.08896985 19762,6917.706,95.434,540.927,538.215,0.0
52997.0,STARLINK-4301,PAYLOAD,2022-11-10 01:03:41,15.08833014,0.000183,53.2151,151.3588,37.0545,323.0574,-0.00020635,-3.5700000000000014e-05,0.0,0 STARLINK-4301,1 52997U 22076M   22314.04422569 -.00003570  00000-0 -20635-3 0  9999,2 52997  53.2151 151.3588 0001830  37.0545 323.0574 15.08833014 19791,6917.901999999999,95.438,541.033,538.501,0.0
52997.0,STARLINK-4301,PAYLOAD,2022-11-10 12:11:23,15.08831104,0.0001753,53.2148,149.2775,36.3388,323.7723,-0.00020375,-3.529e-05,0.0,0 STARLINK-4301,1 52997U 22076M   22314.50790731 -.00003529  00000-0 -20375-3 0  9994,2 52997  53.2148 149.2775 0001753  36.3388 323.7723 15.08831104 19399,6917.908,95.438,540.985,538.56,0.0
52997.0,STARLINK-4301,PAYLOAD,2022-11-10 20:08:18,15.08828702,0.0002125,53.2152,147.7906,37.7132,322.4008,-9.2851e-05,-1.765e-05,0.0,0 STARLINK-4301,1 52997U 22076M   22314.83910670 -.00001765  00000-0 -92851-4 0  9995,2 52997  53.2152 147.7906 0002125  37.7132 322.4008 15.08828702 19447,6917.915,95.438,541.25,538.31,0.0
52997.0,STARLINK-4301,PAYLOAD,2022-11-11 05:40:37,15.08828986,0.0002146,53.2154,146.0065,37.1451,322.9689,-5.3985e-05,-1.147e-05,0.0,0 STARLINK-4301,1 52997U 22076M   22315.23654770 -.00001147  00000-0 -53985-4 0  9995,2 52997  53.2154 146.0065 0002146  37.1451 322.9689 15.08828986 19970,6917.9140000000025,95.438,541.264,538.294,0.0
52997.0,STARLINK-4301,PAYLOAD,2022-11-11 19:59:06,15.08831361,0.0002175,53.2154,143.3299,37.9835,322.131,1.4694e-05,-5.4e-07,0.0,0 STARLINK-4301,1 52997U 22076M   22315.83270848 -.00000054  00000-0  14694-4 0  9990,2 52997  53.2154 143.3299 0002175  37.9835 322.1310 15.08831361 19597,6917.906999999997,95.438,541.276,538.2669999999998,0.0
52997.0,STARLINK-4301,PAYLOAD,2022-11-12 05:31:24,15.08834193,0.0002223,53.2154,141.5456,39.1292,320.986,5.962e-05,6.61e-06,0.0,0 STARLINK-4301,1 52997U 22076M   22316.23014816  .00000661  00000-0  59620-4 0  9997,2 52997  53.2154 141.5456 0002223  39.1292 320.9860 15.08834193 20120,6917.898,95.438,541.3009999999998,538.225,0.0
52997.0,STARLINK-4301,PAYLOAD,2022-11-12 11:52:57,15.08828946,0.0002226,53.2154,140.356,40.0089,320.1067,0.00016156,2.283e-05,0.0,0 STARLINK-4301,1 52997U 22076M   22316.49511106  .00002283  00000-0  16156-3 0  9997,2 52997  53.2154 140.3560 0002226  40.0089 320.1067 15.08828946 19691,6917.9140000000025,95.438,541.319,538.239,0.0
52997.0,STARLINK-4301,PAYLOAD,2022-11-12 21:25:16,15.08836817,0.0002262,53.2154,138.5718,40.9452,319.1709,0.0001603,2.264e-05,0.0,0 STARLINK-4301,1 52997U 22076M   22316.89254833  .00002264  00000-0  16030-3 0  9992,2 52997  53.2154 138.5718 0002262  40.9452 319.1709 15.08836817 19752,6917.89,95.438,541.32,538.19,0.0
52997.0,STARLINK-4301,PAYLOAD,2022-11-13 11:43:44,15.08838893,0.0002274,53.2154,135.8954,42.1191,317.9976,0.00013601,1.877e-05,0.0,0 STARLINK-4301,1 52997U 22076M   22317.48870918  .00001877  00000-0  13601-3 0  9996,2 52997  53.2154 135.8954 0002274  42.1191 317.9976 15.08838893 20313,6917.884,95.438,541.322,538.1759999999998,0.0
52997.0,STARLINK-4301,PAYLOAD,2022-11-13 18:05:17,15.08834773,0.0002248,53.2154,134.7058,42.224,317.8925,4.378e-05,4.08e-06,0.0,0 STARLINK-4301,1 52997U 22076M   22317.75367514  .00000408  00000-0  43780-4 0  9990,2 52997  53.2154 134.7058 0002248  42.2240 317.8925 15.08834773 20353,6917.896,95.438,541.317,538.206,0.0
52997.0,STARLINK-4301,PAYLOAD,2022-11-14 05:12:58,15.08856153,0.0002135,53.2155,132.6242,42.0543,318.0613,-0.00025734,-4.383e-05,0.0,0 STARLINK-4301,1 52997U 22076M   22318.21734784 -.00004383  00000-0 -25734-3 0  9995,2 52997  53.2155 132.6242 0002135  42.0543 318.0613 15.08856153 20426,6917.831,95.437,541.173,538.219,0.0
52997.0,STARLINK-4301,PAYLOAD,2022-11-14 11:34:31,15.08838525,0.000227,53.2155,131.4346,42.7747,317.3422,4.125e-05,3.68e-06,0.0,0 STARLINK-4301,1 52997U 22076M   22318.48231406  .00000368  00000-0  41250-4 0  9996,2 52997  53.2155 131.4346 0002270  42.7747 317.3422 15.08838525 19994,6917.885,95.438,541.32,538.18,0.0
52997.0,STARLINK-4301,PAYLOAD,2022-11-14 17:56:04,15.08841391,0.0002299,53.2156,130.245,43.7469,316.3705,4.1618e-05,3.74e-06,0.0,0 STARLINK-4301,1 52997U 22076M   22318.74727195  .00000374  00000-0  41618-4 0  9995,2 52997  53.2156 130.2450 0002299  43.7469 316.3705 15.08841391 20036,6917.876,95.437,541.332,538.151,0.0
52997.0,STARLINK-4301,PAYLOAD,2022-11-14 21:06:50,15.08844128,0.0002302,53.2154,129.6502,40.428,319.6883,2.8000000000000013e-05,1.57e-06,0.0,0 STARLINK-4301,1 52997U 22076M   22318.87975003  .00000157  00000-0  28000-4 0  9991,2 52997  53.2154 129.6502 0002302  40.4280 319.6883 15.08844128 20522,6917.868,95.437,541.325,538.14,0.0
52997.0,STARLINK-4301,PAYLOAD,2022-11-15 17:46:50,15.08845387,0.000234,53.2156,125.7848,43.2776,316.84,0.00014825,2.072e-05,0.0,0 STARLINK-4301,1 52997U 22076M   22319.74086354  .00002072  00000-0  14825-3 0  9997,2 52997  53.2156 125.7848 0002340  43.2776 316.8400 15.08845387 20181,6917.864000000001,95.437,541.3480000000002,538.11,0.0
52997.0,STARLINK-4301,PAYLOAD,2022-11-16 14:26:52,15.08835183,0.0002434,53.2158,121.9197,44.8154,315.3034,-1.231e-07,-2.9e-06,0.0,0 STARLINK-4301,1 52997U 22076M   22320.60199444 -.00000290  00000-0 -12310-6 0  9991,2 52997  53.2158 121.9197 0002434  44.8154 315.3034 15.08835183 20314,6917.895,95.438,541.444,538.076,0.0
52997.0,STARLINK-4301,PAYLOAD,2022-11-16 17:37:38,15.08838933,0.0002394,53.216,121.3246,45.6572,314.4616,2.7361e-05,1.47e-06,0.0,0 STARLINK-4301,1 52997U 22076M   22320.73447117  .00000147  00000-0  27361-4 0  9997,2 52997  53.2160 121.3246 0002394  45.6572 314.4616 15.08838933 20800,6917.884,95.438,541.405,538.0930000000002,0.0
52997.0,STARLINK-4301,PAYLOAD,2022-11-17 11:06:52,15.08839414,0.0002451,53.2169,118.0558,49.6723,310.4483,-2.2273e-05,-6.43e-06,0.0,0 STARLINK-4301,1 52997U 22076M   22321.46311284 -.00000643  00000-0 -22273-4 0  9993,2 52997  53.2169 118.0558 0002451  49.6723 310.4483 15.08839414 20447,6917.882,95.438,541.443,538.052,0.0
52997.0,STARLINK-4301,PAYLOAD,2022-11-17 14:17:39,15.08834888,0.0002392,53.2162,117.4589,46.9529,313.1663,-7.4715e-05,-1.477e-05,0.0,0 STARLINK-4301,1 52997U 22076M   22321.59559686 -.00001477  00000-0 -74715-4 0  9991,2 52997  53.2162 117.4589 0002392  46.9529 313.1663 15.08834888 20467,6917.896,95.438,541.4159999999998,538.106,0.0
52997.0,STARLINK-4301,PAYLOAD,2022-11-18 03:00:44,15.08840383,0.0002329,53.2159,115.0789,43.5812,316.5364,-0.00014678,-2.624e-05,0.0,0 STARLINK-4301,1 52997U 22076M   22322.12551671 -.00002624  00000-0 -14678-3 0  9993,2 52997  53.2159 115.0789 0002329  43.5812 316.5364 15.08840383 21011,6917.879,95.438,541.355,538.133,0.0
52997.0,STARLINK-4301,PAYLOAD,2022-11-18 10:57:40,15.08834075,0.0002385,53.2159,113.5917,41.9596,318.1579,2.2735e-06,-2.52e-06,0.0,0 STARLINK-4301,1 52997U 22076M   22322.45671884 -.00000252  00000-0  22735-5 0  9997,2 52997  53.2159 113.5917 0002385  41.9596 318.1579 15.08834075 20599,6917.898,95.438,541.413,538.114,0.0
